{
  "type": "FeatureCollection",
  "features": [
    {
      "type": "Feature",
      "properties": {
        "norad_id": 66550,
        "name": "CZ-7A R/B",
        "group": "last-30-days",
        "lat": 11.211614837481724,
        "lon": -42.22376899907128,
        "alt_km": 17792.26597580722,
        "timestamp": "2025-12-17T19:34:06.799855+00:00",
        "meta_object_name": "CZ-7A R/B",
        "meta_object_id": "2025-277B",
        "meta_epoch": "2025-12-12T23:59:46.063680",
        "meta_mean_motion": 2.69999213,
        "meta_eccentricity": 0.70164962,
        "meta_inclination": 14.3833,
        "meta_ra_of_asc_node": 269.7494,
        "meta_arg_of_pericenter": 189.2871,
        "meta_mean_anomaly": 143.2042,
        "meta_ephemeris_type": 0,
        "meta_classification_type": "U",
        "meta_norad_cat_id": 66550,
        "meta_element_set_no": 999,
        "meta_rev_at_epoch": 35,
        "meta_bstar": 0.0022608485,
        "meta_mean_motion_dot": 0.01807848,
        "meta_mean_motion_ddot": -2.55676e-07,
        "tle_line1": "1 66550U 25277B   25346.99983870  .01807848 -25568-6  22608-2 0  9997",
        "tle_line2": "2 66550  14.3833 269.7494 7016496 189.2871 143.2042  2.69999213   350"
      },
      "geometry": {
        "type": "Point",
        "coordinates": [
          -42.22376899907128,
          11.211614837481724
        ]
      }
    },
    {
      "type": "Feature",
      "properties": {
        "norad_id": 66554,
        "name": "GLOBAL-33",
        "group": "last-30-days",
        "lat": 0.49911046979926676,
        "lon": 28.242989714547505,
        "alt_km": 471.032673247837,
        "timestamp": "2025-12-17T19:34:06.799876+00:00",
        "meta_object_name": "GLOBAL-33",
        "meta_object_id": "2025-267A",
        "meta_epoch": "2025-12-16T06:00:18.289152",
        "meta_mean_motion": 15.31623856,
        "meta_eccentricity": 0.00037572,
        "meta_inclination": 42.0219,
        "meta_ra_of_asc_node": 36.7279,
        "meta_arg_of_pericenter": 92.6131,
        "meta_mean_anomaly": 267.5137,
        "meta_ephemeris_type": 0,
        "meta_classification_type": "U",
        "meta_norad_cat_id": 66554,
        "meta_element_set_no": 999,
        "meta_rev_at_epoch": 394,
        "meta_bstar": 0.00030439527,
        "meta_mean_motion_dot": 9.257e-05,
        "meta_mean_motion_ddot": 0,
        "tle_line1": "1 66554U 25267A   25350.25021168  .00009257  00000+0  30440-3 0  9994",
        "tle_line2": "2 66554  42.0219  36.7279 0003757  92.6131 267.5137 15.31623856  3941"
      },
      "geometry": {
        "type": "Point",
        "coordinates": [
          28.242989714547505,
          0.49911046979926676
        ]
      }
    },
    {
      "type": "Feature",
      "properties": {
        "norad_id": 66555,
        "name": "ELECTRON KICK STAGE R/B",
        "group": "last-30-days",
        "lat": 41.99725062326089,
        "lon": 118.21310332662969,
        "alt_km": 455.3750939268839,
        "timestamp": "2025-12-17T19:34:06.799887+00:00",
        "meta_object_name": "ELECTRON KICK STAGE R/B",
        "meta_object_id": "2025-267B",
        "meta_epoch": "2025-12-17T08:13:51.370752",
        "meta_mean_motion": 15.33033306,
        "meta_eccentricity": 0.00066844,
        "meta_inclination": 42.0197,
        "meta_ra_of_asc_node": 30.2077,
        "meta_arg_of_pericenter": 91.1186,
        "meta_mean_anomaly": 269.0418,
        "meta_ephemeris_type": 0,
        "meta_classification_type": "U",
        "meta_norad_cat_id": 66555,
        "meta_element_set_no": 999,
        "meta_rev_at_epoch": 411,
        "meta_bstar": 0.00063009598,
        "meta_mean_motion_dot": 0.0002036,
        "meta_mean_motion_ddot": 0,
        "tle_line1": "1 66555U 25267B   25351.34295568  .00020360  00000+0  63010-3 0  9990",
        "tle_line2": "2 66555  42.0197  30.2077 0006684  91.1186 269.0418 15.33033306  4114"
      },
      "geometry": {
        "type": "Point",
        "coordinates": [
          118.21310332662969,
          41.99725062326089
        ]
      }
    },
    {
      "type": "Feature",
      "properties": {
        "norad_id": 66557,
        "name": "STARLINK-35699",
        "group": "last-30-days",
        "lat": 16.9094759823545,
        "lon": 110.55499207624251,
        "alt_km": 412.4407454768143,
        "timestamp": "2025-12-17T19:34:06.799900+00:00",
        "meta_object_name": "STARLINK-35699",
        "meta_object_id": "2025-268A",
        "meta_epoch": "2025-12-17T07:05:35.152800",
        "meta_mean_motion": 15.50596272,
        "meta_eccentricity": 0.00017841,
        "meta_inclination": 43.0005,
        "meta_ra_of_asc_node": 94.5563,
        "meta_arg_of_pericenter": 268.7939,
        "meta_mean_anomaly": 91.2717,
        "meta_ephemeris_type": 0,
        "meta_classification_type": "U",
        "meta_norad_cat_id": 66557,
        "meta_element_set_no": 999,
        "meta_rev_at_epoch": 533,
        "meta_bstar": 0.0018914815,
        "meta_mean_motion_dot": 0.00112298,
        "meta_mean_motion_ddot": 0,
        "tle_line1": "1 66557U 25268A   25351.29554575  .00112298  00000+0  18915-2 0  9998",
        "tle_line2": "2 66557  43.0005  94.5563 0001784 268.7939  91.2717 15.50596272  5339"
      },
      "geometry": {
        "type": "Point",
        "coordinates": [
          110.55499207624251,
          16.9094759823545
        ]
      }
    },
    {
      "type": "Feature",
      "properties": {
        "norad_id": 66558,
        "name": "STARLINK-35695",
        "group": "last-30-days",
        "lat": 18.269004330145332,
        "lon": 112.25409432976907,
        "alt_km": 412.1260850110157,
        "timestamp": "2025-12-17T19:34:06.799911+00:00",
        "meta_object_name": "STARLINK-35695",
        "meta_object_id": "2025-268B",
        "meta_epoch": "2025-12-16T14:04:46.727616",
        "meta_mean_motion": 15.50585399,
        "meta_eccentricity": 0.0003941,
        "meta_inclination": 43.0027,
        "meta_ra_of_asc_node": 98.6973,
        "meta_arg_of_pericenter": 278.2964,
        "meta_mean_anomaly": 81.745,
        "meta_ephemeris_type": 0,
        "meta_classification_type": "U",
        "meta_norad_cat_id": 66558,
        "meta_element_set_no": 999,
        "meta_rev_at_epoch": 522,
        "meta_bstar": 0.0011942178,
        "meta_mean_motion_dot": 0.0007038,
        "meta_mean_motion_ddot": 0,
        "tle_line1": "1 66558U 25268B   25350.58665194  .00070380  00000+0  11942-2 0  9998",
        "tle_line2": "2 66558  43.0027  98.6973 0003941 278.2964  81.7450 15.50585399  5229"
      },
      "geometry": {
        "type": "Point",
        "coordinates": [
          112.25409432976907,
          18.269004330145332
        ]
      }
    },
    {
      "type": "Feature",
      "properties": {
        "norad_id": 66559,
        "name": "STARLINK-35419",
        "group": "last-30-days",
        "lat": 19.32721379262159,
        "lon": 113.61720774005464,
        "alt_km": 411.7958794405322,
        "timestamp": "2025-12-17T19:34:06.799922+00:00",
        "meta_object_name": "STARLINK-35419",
        "meta_object_id": "2025-268C",
        "meta_epoch": "2025-12-17T07:04:36.604704",
        "meta_mean_motion": 15.50608017,
        "meta_eccentricity": 0.0001894,
        "meta_inclination": 42.9993,
        "meta_ra_of_asc_node": 94.5526,
        "meta_arg_of_pericenter": 288.6146,
        "meta_mean_anomaly": 71.4508,
        "meta_ephemeris_type": 0,
        "meta_classification_type": "U",
        "meta_norad_cat_id": 66559,
        "meta_element_set_no": 999,
        "meta_rev_at_epoch": 533,
        "meta_bstar": 0.0014357802,
        "meta_mean_motion_dot": 0.00084897,
        "meta_mean_motion_ddot": 0,
        "tle_line1": "1 66559U 25268C   25351.29486811  .00084897  00000+0  14358-2 0  9997",
        "tle_line2": "2 66559  42.9993  94.5526 0001894 288.6146  71.4508 15.50608017  5336"
      },
      "geometry": {
        "type": "Point",
        "coordinates": [
          113.61720774005464,
          19.32721379262159
        ]
      }
    },
    {
      "type": "Feature",
      "properties": {
        "norad_id": 66560,
        "name": "STARLINK-35411",
        "group": "last-30-days",
        "lat": 20.669562773101987,
        "lon": 115.37944903717741,
        "alt_km": 411.8588145896183,
        "timestamp": "2025-12-17T19:34:06.799934+00:00",
        "meta_object_name": "STARLINK-35411",
        "meta_object_id": "2025-268D",
        "meta_epoch": "2025-12-16T14:03:46.391040",
        "meta_mean_motion": 15.50572563,
        "meta_eccentricity": 0.00016362,
        "meta_inclination": 43.0003,
        "meta_ra_of_asc_node": 98.6913,
        "meta_arg_of_pericenter": 264.1834,
        "meta_mean_anomaly": 95.884,
        "meta_ephemeris_type": 0,
        "meta_classification_type": "U",
        "meta_norad_cat_id": 66560,
        "meta_element_set_no": 999,
        "meta_rev_at_epoch": 522,
        "meta_bstar": 0.0010681083,
        "meta_mean_motion_dot": 0.00062809,
        "meta_mean_motion_ddot": 0,
        "tle_line1": "1 66560U 25268D   25350.58595360  .00062809  00000+0  10681-2 0  9994",
        "tle_line2": "2 66560  43.0003  98.6913 0001636 264.1834  95.8840 15.50572563  5227"
      },
      "geometry": {
        "type": "Point",
        "coordinates": [
          115.37944903717741,
          20.669562773101987
        ]
      }
    }
  ]
}